NORAD_CAT_ID,OBJECT_NAME,OBJECT_TYPE,EPOCH,MEAN_MOTION,ECCENTRICITY,INCLINATION,RA_OF_ASC_NODE,ARG_OF_PERICENTER,MEAN_ANOMALY,BSTAR,MEAN_MOTION_DOT,MEAN_MOTION_DDOT,TLE_LINE0,TLE_LINE1,TLE_LINE2,SEMIMAJOR_AXIS,PERIOD,APOGEE,PERIGEE,DECAYED
49159.0,STARLINK-3056,PAYLOAD,2024-03-19 21:11:24,14.98337777,0.0002965,69.9988,309.3446,265.8286,94.2534,8.8287e-05,9.61e-06,0.0,0 STARLINK-3056,1 49159U 21082AF  24079.88291911  .00000961  00000-0  88287-4 0  9995,2 49159  69.9988 309.3446 0002965 265.8286  94.2534 14.98337777139250,6950.169,96.107,574.095,569.973,0.0
49159.0,STARLINK-3056,PAYLOAD,2024-03-20 00:23:40,14.98332714,0.0002792,69.9993,309.0081,263.6115,96.4726,0.00019057,2.182e-05,0.0,0 STARLINK-3056,1 49159U 21082AF  24080.01643873  .00002182  00000-0  19057-3 0  9995,2 49159  69.9993 309.0081 0002792 263.6115  96.4726 14.98332714139278,6950.184,96.107,573.99,570.109,0.0
49159.0,STARLINK-3056,PAYLOAD,2024-03-20 21:13:26,14.98326941,0.0002906,69.9993,306.8203,255.5333,104.5503,-0.0001192,-1.515e-05,0.0,0 STARLINK-3056,1 49159U 21082AF  24080.88433106 -.00001515  00000-0 -11920-3 0  9998,2 49159  69.9993 306.8203 0002906 255.5333 104.5503 14.98326941139402,6950.202,96.107,574.087,570.048,0.0
49159.0,STARLINK-3056,PAYLOAD,2024-03-20 22:49:34,14.98323112,0.0002834,69.9994,306.6524,256.5409,103.5434,-8.2677e-05,-1.079e-05,0.0,0 STARLINK-3056,1 49159U 21082AF  24080.95109280 -.00001079  00000-0 -82677-4 0  9992,2 49159  69.9994 306.6524 0002834 256.5409 103.5434 14.98323112139412,6950.214,96.107,574.049,570.11,0.0
49159.0,STARLINK-3056,PAYLOAD,2024-03-21 14:50:54,14.98331547,0.0003352,69.9977,304.9666,266.2777,93.7999,-4.117e-05,-5.84e-06,0.0,0 STARLINK-3056,1 49159U 21082AF  24081.61868743 -.00000584  00000-0 -41170-4 0  9995,2 49159  69.9977 304.9666 0003352 266.2777  93.7999 14.98331547139511,6950.188,96.107,574.383,569.723,0.0
49159.0,STARLINK-3056,PAYLOAD,2024-03-21 19:39:18,14.98335709,0.0003085,69.9983,304.4619,263.246,96.8348,4.0637e-05,3.92e-06,0.0,0 STARLINK-3056,1 49159U 21082AF  24081.81896269  .00000392  00000-0  40637-4 0  9993,2 49159  69.9983 304.4619 0003085 263.2460  96.8348 14.98335709139549,6950.175,96.107,574.184,569.896,0.0
49159.0,STARLINK-3056,PAYLOAD,2024-03-21 22:51:34,14.98341628,0.0003222,69.998,304.1251,267.9,92.179,5.9472e-05,6.17e-06,0.0,0 STARLINK-3056,1 49159U 21082AF  24081.95247828  .00000617  00000-0  59472-4 0  9996,2 49159  69.9980 304.1251 0003222 267.9000  92.1790 14.98341628139568,6950.157,96.106,574.261,569.783,0.0
49159.0,STARLINK-3056,PAYLOAD,2024-03-22 00:27:42,14.98342452,0.0003145,69.9982,303.9565,268.6663,91.4136,0.00010467,1.156e-05,0.0,0 STARLINK-3056,1 49159U 21082AF  24082.01923665  .00001156  00000-0  10467-3 0  9993,2 49159  69.9982 303.9565 0003145 268.6663  91.4136 14.98342452139575,6950.154,96.106,574.205,569.834,0.0
49159.0,STARLINK-3056,PAYLOAD,2024-03-22 14:52:55,14.98330576,0.0003148,69.9984,302.4428,267.0028,93.077,0.00017993,2.055e-05,0.0,0 STARLINK-3056,1 49159U 21082AF  24082.62008177  .00002055  00000-0  17993-3 0  9992,2 49159  69.9984 302.4428 0003148 267.0028  93.0770 14.98330576139666,6950.191,96.107,574.244,569.868,0.0
49159.0,STARLINK-3056,PAYLOAD,2024-03-22 21:17:27,14.98329668,0.0003146,69.9984,301.7692,268.4585,91.6213,0.00020515,2.356e-05,0.0,0 STARLINK-3056,1 49159U 21082AF  24082.88712262  .00002356  00000-0  20515-3 0  9995,2 49159  69.9984 301.7692 0003146 268.4585  91.6213 14.98329668139703,6950.194,96.107,574.245,569.872,0.0
49159.0,STARLINK-3056,PAYLOAD,2024-03-23 21:19:28,14.98333823,0.0002963,69.9983,299.2444,269.3732,90.7088,-2.3236e-05,-3.7e-06,0.0,0 STARLINK-3056,1 49159U 21082AF  24083.88852570 -.00000370  00000-0 -23236-4 0  9993,2 49159  69.9983 299.2444 0002963 269.3732  90.7088 14.98333823139852,6950.181,96.107,574.105,569.987,0.0
49159.0,STARLINK-3056,PAYLOAD,2024-03-23 22:55:36,14.98333203,0.0002866,69.9986,299.0764,265.4769,94.6063,-5.5484e-06,-1.59e-06,0.0,0 STARLINK-3056,1 49159U 21082AF  24083.95528531 -.00000159  00000-0 -55484-5 0  9994,2 49159  69.9986 299.0764 0002866 265.4769  94.6063 14.98333203139866,6950.183,96.107,574.04,570.056,0.0
49159.0,STARLINK-3056,PAYLOAD,2024-03-24 14:56:57,14.98330895,0.0002239,69.9981,297.393,269.2696,90.8206,0.00023034,2.656e-05,0.0,0 STARLINK-3056,1 49159U 21082AF  24084.62288195  .00002656  00000-0  23034-3 0  9994,2 49159  69.9981 297.3930 0002239 269.2696  90.8206 14.98330895139964,6950.19,96.107,573.611,570.499,0.0
49159.0,STARLINK-3056,PAYLOAD,2024-03-24 21:21:28,14.98350247,0.0002358,69.9982,296.7195,271.5493,88.5396,0.00017657,2.015e-05,0.0,0 STARLINK-3056,1 49159U 21082AF  24084.88991278  .00002015  00000-0  17657-3 0  9998,2 49159  69.9982 296.7195 0002358 271.5493  88.5396 14.98350247140008,6950.13,96.106,573.634,570.356,0.0
49159.0,STARLINK-3056,PAYLOAD,2024-03-24 22:57:36,14.98350395,0.0003118,69.9983,296.5514,272.7294,87.3508,0.00026256,3.043e-05,0.0,0 STARLINK-3056,1 49159U 21082AF  24084.95667116  .00003043  00000-0  26256-3 0  9994,2 49159  69.9983 296.5514 0003118 272.7294  87.3508 14.98350395140016,6950.13,96.106,574.162,569.828,0.0
49159.0,STARLINK-3056,PAYLOAD,2024-03-25 06:58:17,14.98336563,0.0002346,70.0013,295.7079,279.5818,80.5076,0.00010106,1.113e-05,0.0,0 STARLINK-3056,1 49159U 21082AF  24085.29048037  .00001113  00000-0  10106-3 0  9990,2 49159  70.0013 295.7079 0002346 279.5818  80.5076 14.98336563140060,6950.173,96.107,573.668,570.407,0.0
49159.0,STARLINK-3056,PAYLOAD,2024-03-25 21:23:30,14.98328048,0.0002769,70.0,294.195,265.5615,94.5228,6.9429e-05,7.35e-06,0.0,0 STARLINK-3056,1 49159U 21082AF  24085.89132308  .00000735  00000-0  69429-4 0  9993,2 49159  70.0000 294.1950 0002769 265.5615  94.5228 14.98328048140159,6950.199,96.107,573.988,570.139,0.0
49159.0,STARLINK-3056,PAYLOAD,2024-03-25 22:59:38,14.98326861,0.0002741,69.999,294.0264,265.7196,94.365,0.00010627,1.175e-05,0.0,0 STARLINK-3056,1 49159U 21082AF  24085.95808531  .00001175  00000-0  10627-3 0  9992,2 49159  69.9990 294.0264 0002741 265.7196  94.3650 14.98326861140166,6950.203,96.107,573.973,570.163,0.0
49159.0,STARLINK-3056,PAYLOAD,2024-03-26 15:00:59,14.98330564,0.0002753,69.9987,292.3433,268.7574,91.327,-1.3669e-05,-2.56e-06,0.0,0 STARLINK-3056,1 49159U 21082AF  24086.62568553 -.00000256  00000-0 -13669-4 0  9995,2 49159  69.9987 292.3433 0002753 268.7574  91.3270 14.98330564140268,6950.191,96.107,573.97,570.143,0.0
49159.0,STARLINK-3056,PAYLOAD,2024-03-26 23:01:39,14.98327114,0.0002893,69.9989,291.5015,267.6731,92.4096,-5.5368e-05,-7.54e-06,0.0,0 STARLINK-3056,1 49159U 21082AF  24086.95948778 -.00000754  00000-0 -55368-4 0  9997,2 49159  69.9989 291.5015 0002893 267.6731  92.4096 14.98327114140316,6950.202,96.107,574.078,570.056,0.0
49159.0,STARLINK-3056,PAYLOAD,2024-03-27 15:03:00,14.98323627,0.0003019,69.9983,289.8173,270.9726,89.1087,7.5942e-05,8.13e-06,0.0,0 STARLINK-3056,1 49159U 21082AF  24087.62708757  .00000813  00000-0  75942-4 0  9997,2 49159  69.9983 289.8173 0003019 270.9726  89.1087 14.98323627140416,6950.213,96.107,574.176,569.979,0.0
49159.0,STARLINK-3056,PAYLOAD,2024-03-27 21:27:32,14.98325203,0.0002995,69.9984,289.144,270.3172,89.7644,6.783e-05,7.16e-06,0.0,0 STARLINK-3056,1 49159U 21082AF  24087.89412799  .00000716  00000-0  67830-4 0  9993,2 49159  69.9984 289.1440 0002995 270.3172  89.7644 14.98325203140459,6950.208,96.107,574.154,569.991,0.0
49159.0,STARLINK-3056,PAYLOAD,2024-03-27 23:03:40,14.983258,0.0002992,69.9984,288.9757,270.3689,89.7127,7.3183e-05,7.8e-06,0.0,0 STARLINK-3056,1 49159U 21082AF  24087.96088771  .00000780  00000-0  73183-4 0  9999,2 49159  69.9984 288.9757 0002992 270.3689  89.7127 14.98325800140467,6950.206,96.107,574.15,569.991,0.0
49159.0,STARLINK-3056,PAYLOAD,2024-03-28 13:28:52,14.98330124,0.0003048,69.9983,287.4604,269.9641,90.1169,0.00016918,1.926e-05,0.0,0 STARLINK-3056,1 49159U 21082AF  24088.56172341  .00001926  00000-0  16918-3 0  9998,2 49159  69.9983 287.4604 0003048 269.9641  90.1169 14.98330124140553,6950.193,96.107,574.176,569.939,0.0
49159.0,STARLINK-3056,PAYLOAD,2024-03-28 19:53:24,14.98334448,0.0003048,69.9983,286.787,269.8469,90.2341,0.00016651,1.895e-05,0.0,0 STARLINK-3056,1 49159U 21082AF  24088.82876092  .00001895  00000-0  16651-3 0  9990,2 49159  69.9983 286.7870 0003048 269.8469  90.2341 14.98334448140597,6950.179,96.107,574.163,569.926,0.0
49159.0,STARLINK-3056,PAYLOAD,2024-03-28 23:05:41,14.98334736,0.0003054,69.9984,286.4503,269.8631,90.2178,0.00016712,1.902e-05,0.0,0 STARLINK-3056,1 49159U 21082AF  24088.96228082  .00001902  00000-0  16712-3 0  9992,2 49159  69.9984 286.4503 0003054 269.8631  90.2178 14.98334736140617,6950.178,96.107,574.166,569.921,0.0
49159.0,STARLINK-3056,PAYLOAD,2024-03-29 19:55:25,14.98334165,0.0003074,69.9986,284.2622,270.0085,90.0722,9.1979e-05,1.005e-05,0.0,0 STARLINK-3056,1 49159U 21082AF  24089.83016176  .00001005  00000-0  91979-4 0  9991,2 49159  69.9986 284.2622 0003074 270.0085  90.0722 14.98334165140749,6950.18,96.107,574.181,569.909,0.0
49159.0,STARLINK-3056,PAYLOAD,2024-03-29 21:31:34,14.98334177,0.0003076,69.9986,284.0939,270.0591,90.0216,9.0179e-05,9.83e-06,0.0,0 STARLINK-3056,1 49159U 21082AF  24089.89692165  .00000983  00000-0  90179-4 0  9990,2 49159  69.9986 284.0939 0003076 270.0591  90.0216 14.98334177140754,6950.18,96.107,574.183,569.907,0.0
49159.0,STARLINK-3056,PAYLOAD,2024-03-30 13:32:54,14.98334901,0.0002873,70.0,282.4107,268.4753,91.6077,-2.1035e-06,-1.18e-06,0.0,0 STARLINK-3056,1 49159U 21082AF  24090.56452164 -.00000118  00000-0 -21035-5 0  9997,2 49159  70.0000 282.4107 0002873 268.4753  91.6077 14.98334901140856,6950.178,96.107,574.04,570.046,0.0
49159.0,STARLINK-3056,PAYLOAD,2024-03-30 21:33:35,14.98331156,0.0002909,69.9994,281.5695,268.5918,91.4907,1.0284e-05,3e-07,0.0,0 STARLINK-3056,1 49159U 21082AF  24090.89832391  .00000030  00000-0  10284-4 0  9991,2 49159  69.9994 281.5695 0002909 268.5918  91.4907 14.98331156140906,6950.189,96.107,574.076,570.033,0.0
